{"type": "FeatureCollection", "features": [ {"type": "Feature", "properties": {"norad_id": 29795, "name": "FENGYUN 1C DEB", "group": "fengyun-1c-debris", "lat": -36.31688347122633, "lon": -78.70639690552366, "alt_km": 914.2891063100978, "timestamp": "2025-12-04T03:47:54.814654+00:00", "meta": {"OBJECT_NAME": "FENGYUN 1C DEB", "OBJECT_ID": "1999-025CM", "EPOCH": "2025-12-03T08:06:18.174240", "MEAN_MOTION": 13.92902139, "ECCENTRICITY": 0.0111095, "INCLINATION": 98.87, "RA_OF_ASC_NODE": 107.0982, "ARG_OF_PERICENTER": 302.2153, "MEAN_ANOMALY": 123.3569, "EPHEMERIS_TYPE": 0, "CLASSIFICATION_TYPE": "U", "NORAD_CAT_ID": 29795, "ELEMENT_SET_NO": 999, "REV_AT_EPOCH": 95934, "BSTAR": 0.00016119, "MEAN_MOTION_DOT": 1.77e-06, "MEAN_MOTION_DDOT": 0}, "tle": {"line1": "1 29795U 99025CM  25337.33771035  .00000177  00000+0  16119-3 0  9991", "line2": "2 29795  98.8700 107.0982 0111095 302.2153 123.3569 13.92902139959344"}}, "geometry": {"type": "Point", "coordinates": [-78.70639690552366, -36.31688347122633]}}, {"type": "Feature", "properties": {"norad_id": 29796, "name": "FENGYUN 1C DEB", "group": "fengyun-1c-debris", "lat": -36.68875547352511, "lon": 36.8026164123946, "alt_km": 825.498443605321, "timestamp": "2025-12-04T03:47:54.814664+00:00", "meta": {"OBJECT_NAME": "FENGYUN 1C DEB", "OBJECT_ID": "1999-025CN", "EPOCH": "2025-12-03T16:39:08.322912", "MEAN_MOTION": 14.12301528, "ECCENTRICITY": 0.0051638, "INCLINATION": 98.8658, "RA_OF_ASC_NODE": 29.6651, "ARG_OF_PERICENTER": 293.906, "MEAN_ANOMALY": 188.7225, "EPHEMERIS_TYPE": 0, "CLASSIFICATION_TYPE": "U", "NORAD_CAT_ID": 29796, "ELEMENT_SET_NO": 999, "REV_AT_EPOCH": 96933, "BSTAR": 0.0009034, "MEAN_MOTION_DOT": 1.639e-05, "MEAN_MOTION_DDOT": 0}, "tle": {"line1": "1 29796U 99025CN  25337.69384633  .00001639  00000+0  90340-3 0  9997", "line2": "2 29796  98.8658  29.6651 0051638 293.9060 188.7225 14.12301528969330"}}, "geometry": {"type": "Point", "coordinates": [36.8026164123946, -36.68875547352511]}}, {"type": "Feature", "properties": {"norad_id": 29798, "name": "FENGYUN 1C DEB", "group": "fengyun-1c-debris", "lat": -1.2396938222412985, "lon": 42.13650165691999, "alt_km": 860.9143956455928, "timestamp": "2025-12-04T03:47:54.814675+00:00", "meta": {"OBJECT_NAME": "FENGYUN 1C DEB", "OBJECT_ID": "1999-025CQ", "EPOCH": "2025-12-03T18:05:32.830080", "MEAN_MOTION": 13.99512521, "ECCENTRICITY": 0.011122, "INCLINATION": 99.2965, "RA_OF_ASC_NODE": 41.5229, "ARG_OF_PERICENTER": 297.0825, "MEAN_ANOMALY": 184.1798, "EPHEMERIS_TYPE": 0, "CLASSIFICATION_TYPE": "U", "NORAD_CAT_ID": 29798, "ELEMENT_SET_NO": 999, "REV_AT_EPOCH": 95799, "BSTAR": 0.0021222, "MEAN_MOTION_DOT": 3.218e-05, "MEAN_MOTION_DDOT": 0}, "tle": {"line1": "1 29798U 99025CQ  25337.75385220  .00003218  00000+0  21222-2 0  9996", "line2": "2 29798  99.2965  41.5229 0111220 297.0825 184.1798 13.99512521957995"}}, "geometry": {"type": "Point", "coordinates": [42.13650165691999, -1.2396938222412985]}}, {"type": "Feature", "properties": {"norad_id": 29800, "name": "FENGYUN 1C DEB", "group": "fengyun-1c-debris", "lat": -16.036952834735256, "lon": 178.1855018906239, "alt_km": 847.6633426839253, "timestamp": "2025-12-04T03:47:54.814685+00:00", "meta": {"OBJECT_NAME": "FENGYUN 1C DEB", "OBJECT_ID": "1999-025CS", "EPOCH": "2025-12-03T01:13:18.663744", "MEAN_MOTION": 13.98481226, "ECCENTRICITY": 0.0133327, "INCLINATION": 98.2902, "RA_OF_ASC_NODE": 359.5858, "ARG_OF_PERICENTER": 254.5128, "MEAN_ANOMALY": 130.879, "EPHEMERIS_TYPE": 0, "CLASSIFICATION_TYPE": "U", "NORAD_CAT_ID": 29800, "ELEMENT_SET_NO": 999, "REV_AT_EPOCH": 95441, "BSTAR": 0.0021634053, "MEAN_MOTION_DOT": 3.303e-05, "MEAN_MOTION_DDOT": 0}, "tle": {"line1": "1 29800U 99025CS  25337.05091046  .00003303  00000+0  21634-2 0  9995", "line2": "2 29800  98.2902 359.5858 0133327 254.5128 130.8790 13.98481226954415"}}, "geometry": {"type": "Point", "coordinates": [178.1855018906239, -16.036952834735256]}}, {"type": "Feature", "properties": {"norad_id": 29801, "name": "FENGYUN 1C DEB", "group": "fengyun-1c-debris", "lat": 49.24188517126253, "lon": -131.34003146421202, "alt_km": 800.6709132715523, "timestamp": "2025-12-04T03:47:54.814695+00:00", "meta": {"OBJECT_NAME": "FENGYUN 1C DEB", "OBJECT_ID": "1999-025CT", "EPOCH": "2025-12-03T17:50:47.784768", "MEAN_MOTION": 14.35878056, "ECCENTRICITY": 0.0103041, "INCLINATION": 98.7947, "RA_OF_ASC_NODE": 238.5846, "ARG_OF_PERICENTER": 294.1839, "MEAN_ANOMALY": 132.6258, "EPHEMERIS_TYPE": 0, "CLASSIFICATION_TYPE": "U", "NORAD_CAT_ID": 29801, "ELEMENT_SET_NO": 999, "REV_AT_EPOCH": 98812, "BSTAR": 0.00032295, "MEAN_MOTION_DOT": 9.45e-06, "MEAN_MOTION_DDOT": 0}, "tle": {"line1": "1 29801U 99025CT  25337.74360862  .00000945  00000+0  32295-3 0  9992", "line2": "2 29801  98.7947 238.5846 0103041 294.1839 132.6258 14.35878056988129"}}, "geometry": {"type": "Point", "coordinates": [-131.34003146421202, 49.24188517126253]}}, {"type": "Feature", "properties": {"norad_id": 29802, "name": "FENGYUN 1C DEB", "group": "fengyun-1c-debris", "lat": -57.79531421144989, "lon": 100.83930996472557, "alt_km": 682.7211871727886, "timestamp": "2025-12-04T03:47:54.814705+00:00", "meta": {"OBJECT_NAME": "FENGYUN 1C DEB", "OBJECT_ID": "1999-025CU", "EPOCH": "2025-12-03T06:50:06.148032", "MEAN_MOTION": 14.61891301, "ECCENTRICITY": 0.0036923, "INCLINATION": 98.6197, "RA_OF_ASC_NODE": 85.9932, "ARG_OF_PERICENTER": 8.3671, "MEAN_ANOMALY": 18.923, "EPHEMERIS_TYPE": 0, "CLASSIFICATION_TYPE": "U", "NORAD_CAT_ID": 29802, "ELEMENT_SET_NO": 999, "REV_AT_EPOCH": 98335, "BSTAR": 0.0035559, "MEAN_MOTION_DOT": 0.0001795, "MEAN_MOTION_DDOT": 0}, "tle": {"line1": "1 29802U 99025CU  25337.28479338  .00017950  00000+0  35559-2 0  9990", "line2": "2 29802  98.6197  85.9932 0036923   8.3671  18.9230 14.61891301983352"}}, "geometry": {"type": "Point", "coordinates": [100.83930996472557, -57.79531421144989]}}, {"type": "Feature", "properties": {"norad_id": 29804, "name": "FENGYUN 1C DEB", "group": "fengyun-1c-debris", "lat": -72.2920139382333, "lon": 137.58533024575172, "alt_km": 863.0403009950469, "timestamp": "2025-12-04T03:47:54.814715+00:00", "meta": {"OBJECT_NAME": "FENGYUN 1C DEB", "OBJECT_ID": "1999-025CW", "EPOCH": "2025-12-03T18:52:56.464032", "MEAN_MOTION": 14.04315618, "ECCENTRICITY": 0.0097515, "INCLINATION": 98.8057, "RA_OF_ASC_NODE": 346.2683, "ARG_OF_PERICENTER": 327.0486, "MEAN_ANOMALY": 211.417, "EPHEMERIS_TYPE": 0, "CLASSIFICATION_TYPE": "U", "NORAD_CAT_ID": 29804, "ELEMENT_SET_NO": 999, "REV_AT_EPOCH": 96768, "BSTAR": 0.00021008, "MEAN_MOTION_DOT": 3.05e-06, "MEAN_MOTION_DDOT": 0}, "tle": {"line1": "1 29804U 99025CW  25337.78676463  .00000305  00000+0  21008-3 0  9996", "line2": "2 29804  98.8057 346.2683 0097515 327.0486 211.4170 14.04315618967686"}}, "geometry": {"type": "Point", "coordinates": [137.58533024575172, -72.2920139382333]}}, {"type": "Feature", "properties": {"norad_id": 29805, "name": "FENGYUN 1C DEB", "group": "fengyun-1c-debris", "lat": -43.854364094936486, "lon": 38.752605716555905, "alt_km": 932.42208061164, "timestamp": "2025-12-04T03:47:54.814725+00:00", "meta": {"OBJECT_NAME": "FENGYUN 1C DEB", "OBJECT_ID": "1999-025CX", "EPOCH": "2025-12-03T08:46:18.170112", "MEAN_MOTION": 13.72651621, "ECCENTRICITY": 0.0187722, "INCLINATION": 99.4564, "RA_OF_ASC_NODE": 28.7557, "ARG_OF_PERICENTER": 254.2344, "MEAN_ANOMALY": 103.8031, "EPHEMERIS_TYPE": 0, "CLASSIFICATION_TYPE": "U", "NORAD_CAT_ID": 29805, "ELEMENT_SET_NO": 999, "REV_AT_EPOCH": 94574, "BSTAR": 0.00025309, "MEAN_MOTION_DOT": 2.18e-06, "MEAN_MOTION_DDOT": 0}, "tle": {"line1": "1 29805U 99025CX  25337.36548808  .00000218  00000+0  25309-3 0  9993", "line2": "2 29805  99.4564  28.7557 0187722 254.2344 103.8031 13.72651621945747"}}, "geometry": {"type": "Point", "coordinates": [38.752605716555905, -43.854364094936486]}}, {"type": "Feature", "properties": {"norad_id": 29806, "name": "FENGYUN 1C DEB", "group": "fengyun-1c-debris", "lat": 26.908333659301604, "lon": -10.27215796222557, "alt_km": 858.3198415013394, "timestamp": "2025-12-04T03:47:54.814735+00:00", "meta": {"OBJECT_NAME": "FENGYUN 1C DEB", "OBJECT_ID": "1999-025CY", "EPOCH": "2025-12-03T13:04:54.874848", "MEAN_MOTION": 14.11977662, "ECCENTRICITY": 0.0027496, "INCLINATION": 98.7132, "RA_OF_ASC_NODE": 353.5959, "ARG_OF_PERICENTER": 278.8899, "MEAN_ANOMALY": 232.9663, "EPHEMERIS_TYPE": 0, "CLASSIFICATION_TYPE": "U", "NORAD_CAT_ID": 29806, "ELEMENT_SET_NO": 999, "REV_AT_EPOCH": 97009, "BSTAR": 0.00071062, "MEAN_MOTION_DOT": 1.262e-05, "MEAN_MOTION_DDOT": 0}, "tle": {"line1": "1 29806U 99025CY  25337.54507957  .00001262  00000+0  71062-3 0  9991", "line2": "2 29806  98.7132 353.5959 0027496 278.8899 232.9663 14.11977662970095"}}, "geometry": {"type": "Point", "coordinates": [-10.27215796222557, 26.908333659301604]}}, {"type": "Feature", "properties": {"norad_id": 29807, "name": "FENGYUN 1C DEB", "group": "fengyun-1c-debris", "lat": -13.414635527073038, "lon": 160.92226580702567, "alt_km": 923.7873937923259, "timestamp": "2025-12-04T03:47:54.814746+00:00", "meta": {"OBJECT_NAME": "FENGYUN 1C DEB", "OBJECT_ID": "1999-025CZ", "EPOCH": "2025-12-03T18:21:28.606752", "MEAN_MOTION": 14.08643691, "ECCENTRICITY": 0.0079979, "INCLINATION": 98.7547, "RA_OF_ASC_NODE": 342.6466, "ARG_OF_PERICENTER": 357.3722, "MEAN_ANOMALY": 2.7017, "EPHEMERIS_TYPE": 0, "CLASSIFICATION_TYPE": "U", "NORAD_CAT_ID": 29807, "ELEMENT_SET_NO": 999, "REV_AT_EPOCH": 96968, "BSTAR": 0.00032951, "MEAN_MOTION_DOT": 5.41e-06, "MEAN_MOTION_DDOT": 0}, "tle": {"line1": "1 29807U 99025CZ  25337.76491443  .00000541  00000+0  32951-3 0  9991", "line2": "2 29807  98.7547 342.6466 0079979 357.3722   2.7017 14.08643691969686"}}, "geometry": {"type": "Point", "coordinates": [160.92226580702567, -13.414635527073038]}}]}